IRIDIUM 156             
1 43576U 18061H   26167.14067606  .00000136  00000+0  41373-4 0  9994
2 43576  86.3960  57.1672 0002070  82.2112 277.9319 14.34217987413228
IRIDIUM 164             
1 43577U 18061J   26167.19141602  .00000131  00000+0  39576-4 0  9996
2 43577  86.3962  57.1862 0002095  88.9353 271.2082 14.34218640413275
IRIDIUM 159             
1 43578U 18061K   26167.15970503  .00000079  00000+0  21193-4 0  9990
2 43578  86.3960  57.1361 0002276  83.4547 276.6908 14.34217705413237
IRIDIUM 180             
1 43922U 19002A   26167.01966235  .00000196  00000+0  62804-4 0  9995
2 43922  86.3971 354.0857 0002242  88.8277 271.3176 14.34218786388828
IRIDIUM 176             
1 43923U 19002B   26166.93552693  .00000659  00000+0  10057-3 0  9991
2 43923  86.6090 354.0646 0002265  92.3052 267.8424 14.72265647399060
IRIDIUM 168             
1 43924U 19002C   26167.08308831  .00000051  00000+0  11109-4 0  9998
2 43924  86.3974 354.1365 0002175  88.9964 271.1480 14.34218285388816
IRIDIUM 173             
1 43925U 19002D   26167.07040296  .00000130  00000+0  39302-4 0  9999
2 43925  86.3968 354.0306 0002186  87.0515 273.0931 14.34218580388795
IRIDIUM 169             
1 43926U 19002E   26167.13935208  .00000239  00000+0  71704-4 0  9995
2 43926  86.4224  25.6315 0001889  72.1552 287.9852 14.38608568390071
IRIDIUM 172             
1 43927U 19002F   26167.06406060  .00000141  00000+0  43313-4 0  9994
2 43927  86.3969 354.0413 0002249  88.8288 271.3165 14.34218142388809
IRIDIUM 175             
1 43928U 19002G   26166.88954554  .00000267  00000+0  72771-4 0  9999
2 43928  86.4511 291.0634 0002328 183.2866 176.8320 14.43612042398797
IRIDIUM 171             
1 43929U 19002H   26167.04503329  .00000186  00000+0  59483-4 0  9994
2 43929  86.3978 354.3553 0002007  89.7262 270.4163 14.34218074388793
IRIDIUM 170             
1 43930U 19002J   26167.00967498  .00000652  00000+0  99469-4 0  9999
2 43930  86.6091 354.0360 0002349  88.9217 271.2269 14.72266193399084
IRIDIUM 167             
1 43931U 19002K   26167.03869034  .00000014  00000+0 -21562-5 0  9993
2 43931  86.3967 354.0742 0001763  90.8547 269.2850 14.34217661388798
IRIDIUM 181             
1 56726U 23068S   26167.13584233  .00000384  00000+0  10816-3 0  9999
2 56726  86.4500  57.2300 0002350  88.4935 271.6535 14.43312160162288
IRIDIUM 177             
1 56727U 23068T   26167.17334884  .00000922  00000+0  11782-3 0  9990
2 56727  86.1961 329.2729 0002366  87.0544 273.0947 14.80228723166214
IRIDIUM 174             
1 56728U 23068U   26167.06530265  .00000671  00000+0  10254-3 0  9994
2 56728  86.6098 354.1601 0002468  84.0365 276.1133 14.72262603165854
IRIDIUM 178             
1 56729U 23068V   26167.09488119  .00000836  00000+0  10663-3 0  9995
2 56729  86.6538  25.8167 0002636  86.0088 274.1435 14.80232140166209
IRIDIUM 179             
1 56730U 23068W   26167.15708190  .00000811  00000+0  10327-3 0  9998
2 56730  86.6779  34.7675 0002431  88.6802 271.4698 14.80235775166215
