OBJECT_NAME,OBJECT_ID,EPOCH,MEAN_MOTION,ECCENTRICITY,INCLINATION,RA_OF_ASC_NODE,ARG_OF_PERICENTER,MEAN_ANOMALY,EPHEMERIS_TYPE,CLASSIFICATION_TYPE,NORAD_CAT_ID,ELEMENT_SET_NO,REV_AT_EPOCH,BSTAR,MEAN_MOTION_DOT,MEAN_MOTION_DDOT
IRIDIUM 156,2018-061H,2026-06-16T03:22:34.411584,14.34217987,.000207,86.3960,57.1672,82.2112,277.9319,0,U,43576,999,41322,.41373E-4,.136E-5,0
IRIDIUM 164,2018-061J,2026-06-16T04:35:38.344128,14.34218640,.0002095,86.3962,57.1862,88.9353,271.2082,0,U,43577,999,41327,.39576E-4,.131E-5,0
IRIDIUM 159,2018-061K,2026-06-16T03:49:58.514592,14.34217705,.0002276,86.3960,57.1361,83.4547,276.6908,0,U,43578,999,41323,.21193E-4,.79E-6,0
IRIDIUM 180,2019-002A,2026-06-16T00:28:18.827040,14.34218786,.0002242,86.3971,354.0857,88.8277,271.3176,0,U,43922,999,38882,.62804E-4,.196E-5,0
IRIDIUM 176,2019-002B,2026-06-15T22:27:09.526752,14.72265647,.0002265,86.6090,354.0646,92.3052,267.8424,0,U,43923,999,39906,.10057E-3,.659E-5,0
IRIDIUM 168,2019-002C,2026-06-16T01:59:38.829984,14.34218285,.0002175,86.3974,354.1365,88.9964,271.1480,0,U,43924,999,38881,.11109E-4,.51E-6,0
IRIDIUM 173,2019-002D,2026-06-16T01:41:22.815744,14.34218580,.0002186,86.3968,354.0306,87.0515,273.0931,0,U,43925,999,38879,.39302E-4,.13E-5,0
IRIDIUM 169,2019-002E,2026-06-16T03:20:40.019712,14.38608568,.0001889,86.4224,25.6315,72.1552,287.9852,0,U,43926,999,39007,.71704E-4,.239E-5,0
IRIDIUM 172,2019-002F,2026-06-16T01:32:14.835840,14.34218142,.0002249,86.3969,354.0413,88.8288,271.3165,0,U,43927,999,38880,.43313E-4,.141E-5,0
IRIDIUM 175,2019-002G,2026-06-15T21:20:56.734656,14.43612042,.0002328,86.4511,291.0634,183.2866,176.8320,0,U,43928,999,39879,.72771E-4,.267E-5,0
IRIDIUM 171,2019-002H,2026-06-16T01:04:50.876256,14.34218074,.0002007,86.3978,354.3553,89.7262,270.4163,0,U,43929,999,38879,.59483E-4,.186E-5,0
IRIDIUM 170,2019-002J,2026-06-16T00:13:55.918272,14.72266193,.0002349,86.6091,354.0360,88.9217,271.2269,0,U,43930,999,39908,.99469E-4,.652E-5,0
IRIDIUM 167,2019-002K,2026-06-16T00:55:42.845376,14.34217661,.0001763,86.3967,354.0742,90.8547,269.2850,0,U,43931,999,38879,-.21562E-5,.14E-6,0
IRIDIUM 181,2023-068S,2026-06-16T03:15:36.777312,14.43312160,.000235,86.4500,57.2300,88.4935,271.6535,0,U,56726,999,16228,.10816E-3,.384E-5,0
IRIDIUM 177,2023-068T,2026-06-16T04:09:37.339776,14.80228723,.0002366,86.1961,329.2729,87.0544,273.0947,0,U,56727,999,16621,.11782E-3,.922E-5,0
IRIDIUM 174,2023-068U,2026-06-16T01:34:02.148960,14.72262603,.0002468,86.6098,354.1601,84.0365,276.1133,0,U,56728,999,16585,.10254E-3,.671E-5,0
IRIDIUM 178,2023-068V,2026-06-16T02:16:37.734816,14.80232140,.0002636,86.6538,25.8167,86.0088,274.1435,0,U,56729,999,16620,.10663E-3,.836E-5,0
IRIDIUM 179,2023-068W,2026-06-16T03:46:11.876160,14.80235775,.0002431,86.6779,34.7675,88.6802,271.4698,0,U,56730,999,16621,.10327E-3,.811E-5,0
